{
  "type": "FeatureCollection",
  "features": [
    {
      "type": "Feature",
      "properties": {
        "norad_id": 36036,
        "name": "SMOS",
        "group": "resource",
        "lat": -50.34970053196522,
        "lon": 176.61126650154563,
        "alt_km": 766.8165413364259,
        "timestamp": "2025-12-07T03:52:32.126747+00:00",
        "meta_object_name": "SMOS",
        "meta_object_id": "2009-059A",
        "meta_epoch": "2025-12-06T06:25:45.772896",
        "meta_mean_motion": 14.39732741,
        "meta_eccentricity": 0.0001133,
        "meta_inclination": 98.4387,
        "meta_ra_of_asc_node": 165.4122,
        "meta_arg_of_pericenter": 84.8118,
        "meta_mean_anomaly": 275.3199,
        "meta_ephemeris_type": 0,
        "meta_classification_type": "U",
        "meta_norad_cat_id": 36036,
        "meta_element_set_no": 999,
        "meta_rev_at_epoch": 84569,
        "meta_bstar": 0.00026315864,
        "meta_mean_motion_dot": 7.81e-06,
        "meta_mean_motion_ddot": 0,
        "tle_line1": "1 36036U 09059A   25340.26789089  .00000781  00000+0  26316-3 0  9990",
        "tle_line2": "2 36036  98.4387 165.4122 0001133  84.8118 275.3199 14.39732741845697"
      },
      "geometry": {
        "type": "Point",
        "coordinates": [
          176.61126650154563,
          -50.34970053196522
        ]
      }
    },
    {
      "type": "Feature",
      "properties": {
        "norad_id": 36110,
        "name": "YAOGAN-7",
        "group": "resource",
        "lat": 81.60808309628062,
        "lon": 116.06869245921835,
        "alt_km": 643.6921593293546,
        "timestamp": "2025-12-07T03:52:32.126757+00:00",
        "meta_object_name": "YAOGAN-7",
        "meta_object_id": "2009-069A",
        "meta_epoch": "2025-12-06T14:27:27.337536",
        "meta_mean_motion": 14.77718454,
        "meta_eccentricity": 0.00235985,
        "meta_inclination": 98.0303,
        "meta_ra_of_asc_node": 222.3811,
        "meta_arg_of_pericenter": 302.1734,
        "meta_mean_anomaly": 57.7188,
        "meta_ephemeris_type": 0,
        "meta_classification_type": "U",
        "meta_norad_cat_id": 36110,
        "meta_element_set_no": 999,
        "meta_rev_at_epoch": 86118,
        "meta_bstar": 0.00019469662,
        "meta_mean_motion_dot": 1.348e-05,
        "meta_mean_motion_ddot": 0,
        "tle_line1": "1 36110U 09069A   25340.60239974  .00001348  00000+0  19470-3 0  9998",
        "tle_line2": "2 36110  98.0303 222.3811 0023598 302.1734  57.7188 14.77718454861180"
      },
      "geometry": {
        "type": "Point",
        "coordinates": [
          116.06869245921835,
          81.60808309628062
        ]
      }
    },
    {
      "type": "Feature",
      "properties": {
        "norad_id": 36605,
        "name": "TANDEM-X",
        "group": "resource",
        "lat": -47.15643311921229,
        "lon": 158.51765629459538,
        "alt_km": 516.2610664758686,
        "timestamp": "2025-12-07T03:52:32.126769+00:00",
        "meta_object_name": "TANDEM-X",
        "meta_object_id": "2010-030A",
        "meta_epoch": "2025-12-06T14:13:48.617184",
        "meta_mean_motion": 15.19146828,
        "meta_eccentricity": 0.00021111,
        "meta_inclination": 97.4449,
        "meta_ra_of_asc_node": 346.063,
        "meta_arg_of_pericenter": 96.3345,
        "meta_mean_anomaly": 263.813,
        "meta_ephemeris_type": 0,
        "meta_classification_type": "U",
        "meta_norad_cat_id": 36605,
        "meta_element_set_no": 999,
        "meta_rev_at_epoch": 85740,
        "meta_bstar": 0.00017045926,
        "meta_mean_motion_dot": 3.514e-05,
        "meta_mean_motion_ddot": 0,
        "tle_line1": "1 36605U 10030A   25340.59292381  .00003514  00000+0  17046-3 0  9990",
        "tle_line2": "2 36605  97.4449 346.0630 0002111  96.3345 263.8130 15.19146828857408"
      },
      "geometry": {
        "type": "Point",
        "coordinates": [
          158.51765629459538,
          -47.15643311921229
        ]
      }
    },
    {
      "type": "Feature",
      "properties": {
        "norad_id": 36795,
        "name": "CARTOSAT-2B",
        "group": "resource",
        "lat": -1.3106069945935428,
        "lon": 30.5523233980064,
        "alt_km": 637.1716926205236,
        "timestamp": "2025-12-07T03:52:32.126780+00:00",
        "meta_object_name": "CARTOSAT-2B",
        "meta_object_id": "2010-035A",
        "meta_epoch": "2025-12-06T14:53:23.714304",
        "meta_mean_motion": 14.78775322,
        "meta_eccentricity": 0.00129122,
        "meta_inclination": 97.7861,
        "meta_ra_of_asc_node": 29.8494,
        "meta_arg_of_pericenter": 95.6448,
        "meta_mean_anomaly": 264.6236,
        "meta_ephemeris_type": 0,
        "meta_classification_type": "U",
        "meta_norad_cat_id": 36795,
        "meta_element_set_no": 999,
        "meta_rev_at_epoch": 83139,
        "meta_bstar": 0.00021102905,
        "meta_mean_motion_dot": 1.503e-05,
        "meta_mean_motion_ddot": 0,
        "tle_line1": "1 36795U 10035A   25340.62041336  .00001503  00000+0  21103-3 0  9996",
        "tle_line2": "2 36795  97.7861  29.8494 0012912  95.6448 264.6236 14.78775322831396"
      },
      "geometry": {
        "type": "Point",
        "coordinates": [
          30.5523233980064,
          -1.3106069945935428
        ]
      }
    },
    {
      "type": "Feature",
      "properties": {
        "norad_id": 36834,
        "name": "YAOGAN-10",
        "group": "resource",
        "lat": -37.407938277977365,
        "lon": 7.131005964946047,
        "alt_km": 621.8637251357059,
        "timestamp": "2025-12-07T03:52:32.126792+00:00",
        "meta_object_name": "YAOGAN-10",
        "meta_object_id": "2010-038A",
        "meta_epoch": "2025-12-06T15:37:00.472224",
        "meta_mean_motion": 14.84572728,
        "meta_eccentricity": 0.00015026,
        "meta_inclination": 97.9142,
        "meta_ra_of_asc_node": 0.517,
        "meta_arg_of_pericenter": 84.4933,
        "meta_mean_anomaly": 29.5975,
        "meta_ephemeris_type": 0,
        "meta_classification_type": "U",
        "meta_norad_cat_id": 36834,
        "meta_element_set_no": 999,
        "meta_rev_at_epoch": 82863,
        "meta_bstar": 0.00040765809,
        "meta_mean_motion_dot": 3.388e-05,
        "meta_mean_motion_ddot": 0,
        "tle_line1": "1 36834U 10038A   25340.65069991  .00003388  00000+0  40766-3 0  9992",
        "tle_line2": "2 36834  97.9142   0.5170 0001502  84.4933  29.5975 14.84572728828632"
      },
      "geometry": {
        "type": "Point",
        "coordinates": [
          7.131005964946047,
          -37.407938277977365
        ]
      }
    },
    {
      "type": "Feature",
      "properties": {
        "norad_id": 37216,
        "name": "COSMO-SKYMED 4",
        "group": "resource",
        "lat": -64.71990646381538,
        "lon": 179.62511261888307,
        "alt_km": 630.5416837899029,
        "timestamp": "2025-12-07T03:52:32.126803+00:00",
        "meta_object_name": "COSMO-SKYMED 4",
        "meta_object_id": "2010-060A",
        "meta_epoch": "2025-12-06T13:35:25.045440",
        "meta_mean_motion": 14.821571,
        "meta_eccentricity": 0.00013612,
        "meta_inclination": 97.8814,
        "meta_ra_of_asc_node": 161.9826,
        "meta_arg_of_pericenter": 82.8865,
        "meta_mean_anomaly": 277.2503,
        "meta_ephemeris_type": 0,
        "meta_classification_type": "U",
        "meta_norad_cat_id": 37216,
        "meta_element_set_no": 999,
        "meta_rev_at_epoch": 81603,
        "meta_bstar": 0.00014708447,
        "meta_mean_motion_dot": 1.119e-05,
        "meta_mean_motion_ddot": 0,
        "tle_line1": "1 37216U 10060A   25340.56626210  .00001119  00000+0  14708-3 0  9992",
        "tle_line2": "2 37216  97.8814 161.9826 0001361  82.8865 277.2503 14.82157100816032"
      },
      "geometry": {
        "type": "Point",
        "coordinates": [
          179.62511261888307,
          -64.71990646381538
        ]
      }
    },
    {
      "type": "Feature",
      "properties": {
        "norad_id": 37387,
        "name": "RESOURCESAT-2",
        "group": "resource",
        "lat": 32.746371707959106,
        "lon": 39.02816524001469,
        "alt_km": 813.5327864288965,
        "timestamp": "2025-12-07T03:52:32.126814+00:00",
        "meta_object_name": "RESOURCESAT-2",
        "meta_object_id": "2011-015A",
        "meta_epoch": "2025-12-06T14:12:23.681664",
        "meta_mean_motion": 14.21593608,
        "meta_eccentricity": 0.00066804,
        "meta_inclination": 98.7885,
        "meta_ra_of_asc_node": 44.1712,
        "meta_arg_of_pericenter": 58.5035,
        "meta_mean_anomaly": 301.6794,
        "meta_ephemeris_type": 0,
        "meta_classification_type": "U",
        "meta_norad_cat_id": 37387,
        "meta_element_set_no": 999,
        "meta_rev_at_epoch": 75881,
        "meta_bstar": 0.0001712235,
        "meta_mean_motion_dot": 3.31e-06,
        "meta_mean_motion_ddot": 0,
        "tle_line1": "1 37387U 11015A   25340.59194076  .00000331  00000+0  17122-3 0  9993",
        "tle_line2": "2 37387  98.7885  44.1712 0006680  58.5035 301.6794 14.21593608758818"
      },
      "geometry": {
        "type": "Point",
        "coordinates": [
          39.02816524001469,
          32.746371707959106
        ]
      }
    }
  ]
}